NORAD_CAT_ID,OBJECT_NAME,OBJECT_TYPE,EPOCH,MEAN_MOTION,ECCENTRICITY,INCLINATION,RA_OF_ASC_NODE,ARG_OF_PERICENTER,MEAN_ANOMALY,BSTAR,MEAN_MOTION_DOT,MEAN_MOTION_DDOT,TLE_LINE0,TLE_LINE1,TLE_LINE2,SEMIMAJOR_AXIS,PERIOD,APOGEE,PERIGEE,DECAYED
56796.0,STARLINK-6049,PAYLOAD,2023-06-06 16:00:03,15.91089365,0.0027417,70.0042,35.8088,162.0286,102.5904,-0.0031969,-0.01047528,0.00032632,0 STARLINK-6049,1 56796U 23078AF  23157.66670139 -.01047528  32632-3 -31969-2 0  9997,2 56796  70.0042  35.8088 0027417 162.0286 102.5904 15.91089365  1308,6677.37,90.504,317.543,280.928,0.0
56796.0,STARLINK-6049,PAYLOAD,2023-06-06 22:00:00,15.90545437,0.0024689,70.0042,35.0834,162.276,93.5219,-0.0030405,-0.00962984,0.00027778,0 STARLINK-6049,1 56796U 23078AF  23157.91667824 -.00962984  27778-3 -30405-2 0  9992,2 56796  70.0042  35.0834 0024689 162.2760  93.5219 15.90545437  1300,6678.893,90.535,317.247,284.268,0.0
56796.0,STARLINK-6049,PAYLOAD,2023-06-07 12:00:00,15.89417931,0.0019551,70.0037,33.395,164.7403,189.0009,-0.0032741,-0.00969055,0.00027794,0 STARLINK-6049,1 56796U 23078AF  23158.50001157 -.00969055  27794-3 -32741-2 0  9998,2 56796  70.0037  33.3950 0019551 164.7403 189.0009 15.89417931  1434,6682.051,90.599,316.98,290.852,0.0
56796.0,STARLINK-6049,PAYLOAD,2023-06-07 12:01:38,15.89595812,0.0022004,70.0039,33.3924,161.5021,198.699,-0.0017488,-0.00526415,8.9977e-05,0 STARLINK-6049,1 56796U 23078AF  23158.50114384 -.00526415  89977-4 -17488-2 0  9997,2 56796  70.0039  33.3924 0022004 161.5021 198.6990 15.89595812  1176,6681.552,90.589,318.119,288.715,0.0
56796.0,STARLINK-6049,PAYLOAD,2023-06-07 20:00:01,15.88763709,0.0016363,70.0035,32.4311,165.9959,294.0846,-0.0034705,-0.00988808,0.00028669,0 STARLINK-6049,1 56796U 23078AF  23158.83334491 -.00988808  28669-3 -34705-2 0  9995,2 56796  70.0035  32.4311 0016363 165.9959 294.0846 15.88763709  1487,6683.885,90.637,316.687,294.813,0.0
56796.0,STARLINK-6049,PAYLOAD,2023-06-07 22:00:00,15.88576612,0.0015669,70.0033,32.1902,166.1739,50.3725,-0.003323,-0.00937413,0.00025924,0 STARLINK-6049,1 56796U 23078AF  23158.91667824 -.00937413  25924-3 -33230-2 0  9992,2 56796  70.0033  32.1902 0015669 166.1739  50.3725 15.88576612  1300,6684.41,90.647,316.749,295.801,0.0
56796.0,STARLINK-6049,PAYLOAD,2023-06-08 04:00:00,15.88128214,0.0013336,70.0025,31.4678,168.3504,37.2647,-0.0036817,-0.01012174,0.00029754,0 STARLINK-6049,1 56796U 23078AF  23159.16667824 -.01012174  29754-3 -36817-2 0  9998,2 56796  70.0025  31.4678 0013336 168.3504  37.2647 15.88128214  1539,6685.668,90.673,316.449,298.617,0.0
56796.0,STARLINK-6049,PAYLOAD,2023-06-08 12:00:00,15.87463541,0.001111,70.003,30.5054,173.0701,137.3077,-0.0036701,-0.00974405,0.00027555,0 STARLINK-6049,1 56796U 23078AF  23159.50001157 -.00974405  27555-3 -36701-2 0  9999,2 56796  70.0030  30.5054 0011110 173.0701 137.3077 15.87463541  1592,6687.534,90.711,316.829,301.969,0.0
56796.0,STARLINK-6049,PAYLOAD,2023-06-08 12:12:33,15.87706171,0.0012763,70.0035,30.4808,169.5605,190.5867,-0.0010095,-0.00273396,2.748e-05,0 STARLINK-6049,1 56796U 23078AF  23159.50872322 -.00273396  27480-4 -10095-2 0  9996,2 56796  70.0035  30.4808 0012763 169.5605 190.5867 15.87706171  1330,6686.853,90.697,317.252,300.183,0.0
56796.0,STARLINK-6049,PAYLOAD,2023-06-08 20:00:01,15.86819667,0.0008066,70.0031,29.5441,179.6274,234.8046,-0.0039559,-0.00920578,0.0,0 STARLINK-6049,1 56796U 23078AF  23159.83335648 -.00920578  00000-0 -39559-2 0  9999,2 56796  70.0031  29.5441 0008066 179.6274 234.8046 15.86819667  1642,6689.343,90.748,316.604,305.812,0.0
56796.0,STARLINK-6049,PAYLOAD,2023-06-08 22:00:00,15.866153,0.0007371,70.0029,29.304,180.6338,349.6172,-0.0036456,-0.00846271,0.0,0 STARLINK-6049,1 56796U 23078AF  23159.91667824 -.00846271  00000-0 -36456-2 0  9992,2 56796  70.0029  29.3040 0007371 180.6338 349.6172 15.86615300  1309,6689.917,90.759,316.713,306.851,0.0
56796.0,STARLINK-6049,PAYLOAD,2023-06-09 04:00:00,15.86178297,0.0005393,70.0029,28.5837,191.8367,325.72,-0.0041264,-0.00927424,0.0,0 STARLINK-6049,1 56796U 23078AF  23160.16667824 -.00927424  00000-0 -41264-2 0  9994,2 56796  70.0029  28.5837 0005393 191.8367 325.7200 15.86178297  1690,6691.146,90.784,316.62,309.402,0.0
56796.0,STARLINK-6049,PAYLOAD,2023-06-09 12:00:02,15.85497912,0.0004042,70.0034,27.6242,217.6706,42.3735,-0.0039755,-0.00869218,0.0,0 STARLINK-6049,1 56796U 23078AF  23160.50002315 -.00869218  00000-0 -39755-2 0  9998,2 56796  70.0034  27.6242 0004042 217.6706  42.3735 15.85497912  1759,6693.06,90.823,317.63,312.22,0.0
56796.0,STARLINK-6049,PAYLOAD,2023-06-09 14:00:01,15.85383723,0.0003751,70.0037,27.3846,227.6005,147.8435,-0.0044083,-0.00949555,0.0,0 STARLINK-6049,1 56796U 23078AF  23160.58334491 -.00949555  00000-0 -44083-2 0  9992,2 56796  70.0037  27.3846 0003751 227.6005 147.8435 15.85383723  1301,6693.381,90.83,317.757,312.736,0.0
56796.0,STARLINK-6049,PAYLOAD,2023-06-09 20:00:01,15.8485906,0.0003454,70.004,26.6657,252.5604,109.0565,-0.0043183,-0.00910738,0.0,0 STARLINK-6049,1 56796U 23078AF  23160.83334491 -.00910738  00000-0 -43183-2 0  9991,2 56796  70.0040  26.6657 0003454 252.5604 109.0565 15.84859060  1809,6694.859,90.86,319.036,314.411,0.0
56796.0,STARLINK-6049,PAYLOAD,2023-06-09 22:00:00,15.84674609,0.0003265,70.0039,26.4264,259.6574,217.25,-0.0041281,-0.00867146,0.0,0 STARLINK-6049,1 56796U 23078AF  23160.91667824 -.00867146  00000-0 -41281-2 0  9990,2 56796  70.0039  26.4264 0003265 259.6574 217.2500 15.84674609  1303,6695.378,90.87,319.429,315.057,0.0
56796.0,STARLINK-6049,PAYLOAD,2023-06-10 04:00:01,15.84236085,0.0003407,70.0036,25.7081,268.5417,193.9816,-0.0046618,-0.00949831,0.0,0 STARLINK-6049,1 56796U 23078AF  23161.16668981 -.00949831  00000-0 -46618-2 0  9994,2 56796  70.0036  25.7081 0003407 268.5417 193.9816 15.84236085  1854,6696.614,90.896,320.76,316.197,0.0
56796.0,STARLINK-6049,PAYLOAD,2023-06-10 12:00:02,15.83537319,0.0003457,70.0036,24.7518,261.0378,301.566,-0.0043251,-0.00861119,0.0,0 STARLINK-6049,1 56796U 23078AF  23161.50002315 -.00861119  00000-0 -43251-2 0  9997,2 56796  70.0036  24.7518 0003457 261.0378 301.5660 15.83537319  1900,6698.583,90.936,322.764,318.133,0.0
56796.0,STARLINK-6049,PAYLOAD,2023-06-10 14:00:01,15.83411724,0.0003634,70.0038,24.5129,262.1066,55.3141,-0.0046798,-0.0092002,0.0,0 STARLINK-6049,1 56796U 23078AF  23161.58334491 -.00920020  00000-0 -46798-2 0  9994,2 56796  70.0038  24.5129 0003634 262.1066  55.3141 15.83411724  1304,6698.938,90.943,323.237,318.368,0.0
56796.0,STARLINK-6049,PAYLOAD,2023-06-10 20:00:01,15.82898589,0.0003659,70.0036,23.7963,266.9916,34.8407,-0.0047272,-0.00908262,0.0,0 STARLINK-6049,1 56796U 23078AF  23161.83334491 -.00908262  00000-0 -47272-2 0  9994,2 56796  70.0036  23.7963 0003659 266.9916  34.8407 15.82898589  1968,6700.385,90.972,324.702,319.799,0.0
56796.0,STARLINK-6049,PAYLOAD,2023-06-10 22:00:00,15.82719966,0.0003681,70.0035,23.5575,271.2474,145.2862,-0.0045792,-0.0087574,0.0,0 STARLINK-6049,1 56796U 23078AF  23161.91667824 -.00875740  00000-0 -45792-2 0  9991,2 56796  70.0035  23.5575 0003681 271.2474 145.2862 15.82719966  1308,6700.889,90.983,325.221,320.288,0.0
56796.0,STARLINK-6049,PAYLOAD,2023-06-11 14:00:01,15.81458997,0.0003638,70.0034,21.6492,264.5523,347.7963,-0.0051725,-0.00926873,0.0,0 STARLINK-6049,1 56796U 23078AF  23162.58334491 -.00926873  00000-0 -51725-2 0  9993,2 56796  70.0034  21.6492 0003638 264.5523 347.7963 15.81458997  1300,6704.451,91.055,328.755,323.877,0.0
56796.0,STARLINK-6049,PAYLOAD,2023-06-11 20:00:01,15.80933739,0.000367,70.0034,20.9345,270.0176,324.9861,-0.0051073,-0.00896342,0.0,0 STARLINK-6049,1 56796U 23078AF  23162.83334491 -.00896342  00000-0 -51073-2 0  9994,2 56796  70.0034  20.9345 0003670 270.0176 324.9861 15.80933739  2116,6705.936,91.085,330.262,325.34,0.0
56796.0,STARLINK-6049,PAYLOAD,2023-06-12 12:00:00,15.79630642,0.000359,70.0036,19.0315,267.9405,158.5878,-0.0052715,-0.00873588,0.0,0 STARLINK-6049,1 56796U 23078AF  23163.50001157 -.00873588  00000-0 -52715-2 0  9990,2 56796  70.0036  19.0315 0003590 267.9405 158.5878 15.79630642  1309,6709.623,91.161,333.897,329.08,0.0
56796.0,STARLINK-6049,PAYLOAD,2023-06-12 20:00:01,15.78969774,0.000349,70.0039,18.0815,271.2396,249.8929,-0.0054827,-0.00880831,0.0,0 STARLINK-6049,1 56796U 23078AF  23163.83334491 -.00880831  00000-0 -54827-2 0  9991,2 56796  70.0039  18.0815 0003490 271.2396 249.8929 15.78969774  2270,6711.495,91.199,335.703,331.018,0.0
56796.0,STARLINK-6049,PAYLOAD,2023-06-12 22:00:00,15.78801627,0.0003527,70.0039,17.8441,271.2649,3.3914,-0.0054025,-0.00863157,0.0,0 STARLINK-6049,1 56796U 23078AF  23163.91667824 -.00863157  00000-0 -54025-2 0  9991,2 56796  70.0039  17.8441 0003527 271.2649   3.3914 15.78801627  1306,6711.972,91.208,336.204,331.47,0.0
56796.0,STARLINK-6049,PAYLOAD,2023-06-13 12:00:00,15.7767979,0.0003552,70.0033,16.184,265.1352,82.8246,-0.0058202,-0.0088206,0.0,0 STARLINK-6049,1 56796U 23078AF  23164.50001157 -.00882060  00000-0 -58202-2 0  9993,2 56796  70.0033  16.1840 0003552 265.1352  82.8246 15.77679790  2388,6715.153,91.273,339.404,334.633,0.0
56796.0,STARLINK-6049,PAYLOAD,2023-06-13 14:00:01,15.77551902,0.0003412,70.0036,15.947,266.547,194.5372,-0.006281,-0.00939879,0.0,0 STARLINK-6049,1 56796U 23078AF  23164.58334491 -.00939879  00000-0 -62810-2 0  9992,2 56796  70.0036  15.9470 0003412 266.5470 194.5372 15.77551902  1304,6715.516,91.281,339.673,335.09,0.0
56796.0,STARLINK-6049,PAYLOAD,2023-06-13 18:00:00,15.77202855,0.0003552,70.0033,15.4733,267.7292,59.495,-0.0062659,-0.00924827,0.0,0 STARLINK-6049,1 56796U 23078AF  23164.75001157 -.00924827  00000-0 -62659-2 0  9999,2 56796  70.0033  15.4733 0003552 267.7292  59.4950 15.77202855  2423,6716.507,91.301,340.758,335.986,0.0
56796.0,STARLINK-6049,PAYLOAD,2023-06-13 22:00:00,15.76845241,0.0003296,70.0031,14.9998,272.3115,280.8455,-0.0058855,-0.00861307,0.0,0 STARLINK-6049,1 56796U 23078AF  23164.91667824 -.00861307  00000-0 -58855-2 0  9992,2 56796  70.0031  14.9998 0003296 272.3115 280.8455 15.76845241  1306,6717.522,91.322,341.602,337.173,0.0
